IRIDE-MS2-HEO-4
1 64582U 25135BG  26105.83009625  .00000786  00000+0  78667-4 0  9996
2 64582  97.7639 221.0142 0004565 171.1960 188.9341 14.94189363 44599
CAPELLA-17 (ACADIA-7)
1 64583U 25135BH  26105.81307236  .00003548  00000+0  35990-3 0  9994
2 64583  97.7616 220.3885 0005724 189.8351 170.2756 14.91500628 44557
ICEYE-X53
1 64584U 25135BJ  26105.82254927  .00001825  00000+0  14820-3 0  9999
2 64584  97.7410 222.8584 0002381 158.5096 201.6228 15.00869842 44727
IRIDE-MS2-HEO-9
1 64585U 25135BK  26105.87719019  .00001312  00000+0  12753-3 0  9997
2 64585  97.7671 221.2149 0003948 173.9954 186.1314 14.94290269 44604
LEMUR-2-SEJONG-2
1 64586U 25135BL  26105.85079156  .00002719  00000+0  24650-3 0  9998
2 64586  97.7599 221.3542 0005170 162.0456 198.0948 14.96160538 44621
IRIDE-MS2-HEO-8
1 64587U 25135BM  26105.85780679  .00001406  00000+0  13597-3 0  9998
2 64587  97.7650 221.1684 0004853 167.4460 192.6882 14.94383512 44608
BIFROST-DNK
1 64588U 25135BN  26105.80602411  .00001769  00000+0  16982-3 0  9994
2 64588  97.7663 221.1177 0004331 176.6406 183.4844 14.94337372 44590
SATORO-T3
1 64589U 25135BP  26105.81682083  .00001059  00000+0  10450-3 0  9995
2 64589  97.7635 221.0186 0005308 164.9957 195.1421 14.94088049 44590
TRANSPORTER-14 OBJECT BQ
1 64590U 25135BQ  26105.76826375  .00000676  00000+0  68996-4 0  9998
2 64590  97.7635 220.9162 0005665 166.2280 193.9095 14.93854777 44584
AE2A
1 64591U 25135BR  26105.85199956  .00002932  00000+0  26287-3 0  9990
2 64591  97.7600 221.5174 0006037 168.0371 192.0995 14.96545506 44637
HUBBLE 7
1 64592U 25135BS  26105.85612507  .00001212  00000+0  11990-3 0  9998
2 64592  97.7673 221.2402 0003098 162.8805 197.2520 14.93723494 44606
STARLINK-34280
1 64594U 25137A   26105.45267978  .00004947  00000+0  17907-3 0  9998
2 64594  53.1565 164.4674 0000814  84.8692 275.2401 15.30195873 46369
STARLINK-34517
1 64595U 25137B   26105.86356105  .00006610  00000+0  23512-3 0  9993
2 64595  53.1569 162.7607 0000841  82.5160 277.5936 15.30197916 46421
STARLINK-34510
1 64596U 25137C   26105.85828610  .00010102  00000+0  35269-3 0  9991
2 64596  53.1560 162.7306 0001230  85.0029 275.1112 15.30204656 46424
STARLINK-34486
1 64597U 25137D   26105.42535164  .00007580  00000+0  26769-3 0  9995
2 64597  53.1614 164.9998 0001631  94.0293 266.0894 15.30210632 46353
STARLINK-34463
1 64598U 25137E   26105.48328052  .00004564  00000+0  16612-3 0  9993
2 64598  53.1604 164.6510 0001025  84.7822 275.3296 15.30199813 46368
STARLINK-34294
1 64599U 25137F   26105.85933860  .00010880  00000+0  37889-3 0  9991
2 64599  53.1571 162.7342 0000680  95.9153 264.1925 15.30203985 46429
STARLINK-34504
1 64600U 25137G   26105.42324343  .00008352  00000+0  29380-3 0  9995
2 64600  53.1616 164.9913 0001397  87.5999 272.5162 15.30200795 46355
STARLINK-34508
1 64601U 25137H   26105.44318037  .00007845  00000+0  27673-3 0  9990
2 64601  53.1584 164.4071 0001119  87.2712 272.8417 15.30199918 46363
STARLINK-34435
1 64602U 25137J   26105.85617343  .00005812  00000+0  20820-3 0  9997
2 64602  53.1575 162.7119 0000944  62.0776 298.0321 15.30202284 46426
STARLINK-34475
1 64603U 25137K   26105.45795135 -.00001436  00000+0 -36360-4 0  9997
2 64603  53.1585 164.4945 0000944  82.9268 277.1840 15.30198630 46367
STARLINK-34488
1 64604U 25137L   26105.44003798  .00022726  00000+0  77730-3 0  9992
2 64604  53.1583 164.3868 0001278  86.8940 273.2207 15.30190111 46360
STARLINK-34516
1 64605U 25137M   26105.42840425  .00009074  00000+0  31808-3 0  9994
2 64605  53.1597 164.3074 0000653  82.4363 277.6712 15.30204103 46469
STARLINK-34073
1 64606U 25137N   26105.43579325  .00009294  00000+0  32553-3 0  9996
2 64606  53.1591 164.3547 0001235  81.9072 278.2068 15.30201422 46245
STARLINK-34532
1 64607U 25137P   26105.47369343  .00001978  00000+0  78916-4 0  9993
2 64607  53.1588 174.5338 0001228  88.0005 272.1137 15.30193181 46229
STARLINK-34519
1 64608U 25137Q   26105.44951148  .00003833  00000+0  14148-3 0  9999
2 64608  53.1572 164.4449 0001071  86.0629 274.0494 15.30194406 46363
STARLINK-34513
1 64609U 25137R   26105.44634629  .00005981  00000+0  21389-3 0  9993
2 64609  53.1576 164.4243 0000890  80.2796 279.8305 15.30197785 46456
STARLINK-34569
1 64610U 25137S   26105.47589399  .00006122  00000+0  21867-3 0  9990
2 64610  53.1578 164.6078 0001119  75.4483 284.6642 15.30198810 46360
STARLINK-34494
1 64611U 25137T   26105.84773051  .00007085  00000+0  25104-3 0  9999
2 64611  53.1569 162.6572 0000862  70.0386 290.0708 15.30206106 46424
STARLINK-34521
1 64612U 25137U   26105.44528883  .00001325  00000+0  56865-4 0  9997
2 64612  53.1566 164.4115 0000894  53.7120 306.3963 15.30196219 46364
STARLINK-34500
1 64613U 25137V   26105.86039444  .00008637  00000+0  30338-3 0  9993
2 64613  53.1562 162.7363 0000839  87.9460 272.1637 15.30202477 46522
STARLINK-34440
1 64614U 25137W   26105.46111939  .00004879  00000+0  17674-3 0  9992
2 64614  53.1577 164.5104 0001150  83.0176 277.0955 15.30198375 46360
STARLINK-34469
1 64615U 25137X   26105.43157199  .00009979  00000+0  34861-3 0  9991
2 64615  53.1593 164.3289 0001054  80.3171 279.7949 15.30197885 46366
STARLINK-34413
1 64616U 25137Y   26105.48116941  .00003208  00000+0  12037-3 0  9997
2 64616  53.1602 164.6342 0000906  79.5261 280.5842 15.30206373 46462
STARLINK-34417
1 64617U 25137Z   26105.41526576  .00006618  00000+0  23537-3 0  9995
2 64617  53.1562 151.9304 0000811  67.5836 292.5250 15.30196881 46632
STARLINK-34415
1 64618U 25137AA  26105.38630762  .00004957  00000+0  17938-3 0  9997
2 64618  53.1584 164.7529 0001236  76.9623 283.1516 15.30200804 46359
STARLINK-34416
1 64619U 25137AB  26105.44845637  .00003625  00000+0  13446-3 0  9995
2 64619  53.1577 164.4309 0001145  79.2109 280.9020 15.30198351 46368
STARLINK-34414
1 64620U 25137AC  26105.86461647  .00011262  00000+0  39185-3 0  9992
2 64620  53.1588 162.7569 0001093  84.5061 275.6064 15.30194837 46420
HAWK-12C
1 64621U 25138A   26105.55023090  .00005858  00000+0  29277-3 0  9991
2 64621  97.4354 109.0830 0014082   9.5295 350.6203 15.17752486 44361
HAWK-12B
1 64622U 25138B   26105.74815830  .00002565  00000+0  13027-3 0  9992
2 64622  97.4480 109.8250 0013003   4.1493 355.9846 15.17728866 44398
HAWK-12A
1 64623U 25138C   26105.74781505  .00002607  00000+0  13212-3 0  9997
2 64623  97.4418 109.5498 0013957   3.6775 356.4559 15.17770865 44399
KESTREL-0A
1 64624U 25138D   26105.73855557  .00006385  00000+0  28104-3 0  9999
2 64624  97.4417 110.4785 0012890 352.7232   7.3815 15.22126295 44441
STARLINK-34464
1 64664U 25139A   26105.86552948  .00006396  00000+0  22784-3 0  9996
2 64664  53.1598 314.5207 0000969  51.3621 308.7466 15.30204597 45978
STARLINK-34555
1 64665U 25139B   26105.86236667  .00008688  00000+0  30514-3 0  9990
2 64665  53.1582 314.5032 0001171  83.6845 276.4289 15.30196904 45875
STARLINK-34390
1 64666U 25139C   26105.76433572  .00014283  00000+0  49333-3 0  9991
2 64666  53.1627 314.6009 0001533 103.1050 257.0122 15.30207273 46020
STARLINK-34382
1 64667U 25139D   26105.81288120  .00006906  00000+0  24491-3 0  9996
2 64667  53.1593 314.9041 0001269  78.9570 281.1574 15.30224132 45968
STARLINK-34395
1 64668U 25139E   26105.86869523  .00011016  00000+0  38349-3 0  9999
2 64668  53.1564 314.5386 0000751  46.4263 313.6800 15.30199730 45978
STARLINK-34394
1 64669U 25139F   26105.85919852  .00003523  00000+0  13104-3 0  9996
2 64669  53.1579 314.4851 0000873  84.2097 275.9004 15.30193332 45979
STARLINK-34287
1 64670U 25139G   26105.85286862  .00015739  00000+0  54231-3 0  9994
2 64670  53.1593 314.4416 0001217  81.8274 278.2864 15.30205403 45970
STARLINK-34365
1 64671U 25139H   26105.87502726  .00010216  00000+0  35652-3 0  9998
2 64671  53.1579 314.5777 0001183  65.1492 294.9632 15.30203499 46034
STARLINK-34442
1 64672U 25139J   26105.83914671  .00013427  00000+0  46451-3 0  9997
2 64672  53.1609 314.3545 0001547 103.1576 256.9597 15.30209104 45979
STARLINK-34288
1 64673U 25139K   26105.84548171  .00011790  00000+0  40953-3 0  9999
2 64673  53.1597 314.3963 0001554  98.2518 261.8659 15.30202656 45977
STARLINK-34539
1 64674U 25139L   26105.77066727  .00011046  00000+0  38446-3 0  9992
2 64674  53.1611 314.6383 0001477  98.2904 261.8264 15.30203832 45864
STARLINK-34590
1 64675U 25139M   26105.82026580  .00008025  00000+0  28275-3 0  9994
2 64675  53.1578 314.9513 0001230  92.7369 267.3773 15.30201815 45962
STARLINK-34573
1 64676U 25139N   26105.30396827  .00007862  00000+0  27734-3 0  9999
2 64676  53.1599 316.7039 0001067  91.0128 269.0995 15.30195623 45898
STARLINK-34605
1 64677U 25139P   26105.73487875  .00006707  00000+0  23838-3 0  9999
2 64677  53.1599 304.4866 0001345  93.9815 266.1339 15.30198319 46104
STARLINK-34525
1 64678U 25139Q   26105.81498941  .00006541  00000+0  23267-3 0  9997
2 64678  53.1589 314.9150 0001715  79.8469 280.2725 15.30217258 45968
STARLINK-34489
1 64679U 25139R   26105.87397256  .00011582  00000+0  40250-3 0  9993
2 64679  53.1589 314.5684 0001322  70.3966 289.7178 15.30205463 45971
STARLINK-34502
1 64680U 25139S   26105.76645240  .00008224  00000+0  28952-3 0  9996
2 64680  53.1601 314.6097 0000919  95.8126 264.2979 15.30193589 45969
STARLINK-34553
1 64681U 25139T   26105.82542815  .00009993  00000+0  34905-3 0  9997
2 64681  53.1592 314.2648 0001165  97.5448 262.5685 15.30201221 45976
STARLINK-34551
1 64682U 25139U   26105.80336573  .00007937  00000+0  27983-3 0  9992
2 64682  53.1566 304.1910 0001225  97.0466 263.0674 15.30198838 46110
STARLINK-34550
1 64683U 25139V   26105.85075483  .00015861  00000+0  54626-3 0  9997
2 64683  53.1599 314.4249 0000687  94.5266 265.5813 15.30213312 45977
STARLINK-34485
1 64684U 25139W   26105.86764101  .00008522  00000+0  29954-3 0  9993
2 64684  53.1601 314.5302 0001246  91.1496 268.9648 15.30198878 45975
STARLINK-34253
1 64685U 25139X   26105.86447316  .00004704  00000+0  17083-3 0  9998
2 64685  53.1589 314.5058 0001043  65.5501 294.5608 15.30200037 45978
